{"type": "FeatureCollection", "features": [ {"type": "Feature", "properties": {"norad_id": 36644, "name": "FENGYUN 1C DEB", "group": "fengyun-1c-debris", "lat": -79.6198209426404, "lon": -117.24300255020792, "alt_km": 927.7492744937163, "timestamp": "2025-12-02T17:49:12.316262+00:00", "meta": {"OBJECT_NAME": "FENGYUN 1C DEB", "OBJECT_ID": "1999-025DXN", "EPOCH": "2025-11-26T15:39:07.759296", "MEAN_MOTION": 13.59124847, "ECCENTRICITY": 0.02860442, "INCLINATION": 98.4214, "RA_OF_ASC_NODE": 111.4857, "ARG_OF_PERICENTER": 222.436, "MEAN_ANOMALY": 135.4347, "EPHEMERIS_TYPE": 0, "CLASSIFICATION_TYPE": "U", "NORAD_CAT_ID": 36644, "ELEMENT_SET_NO": 999, "REV_AT_EPOCH": 61349, "BSTAR": 0.0017692716, "MEAN_MOTION_DOT": 1.666e-05, "MEAN_MOTION_DDOT": 0}, "tle": {"line1": "1 36644U 99025DXN 25330.65217314  .00001666  00000+0  17693-2 0  9996", "line2": "2 36644  98.4214 111.4857 0286044 222.4360 135.4347 13.59124847613497"}}, "geometry": {"type": "Point", "coordinates": [-117.24300255020792, -79.6198209426404]}}, {"type": "Feature", "properties": {"norad_id": 36647, "name": "FENGYUN 1C DEB", "group": "fengyun-1c-debris", "lat": 78.16711157379785, "lon": 90.02428576638582, "alt_km": 983.3805035779351, "timestamp": "2025-12-02T17:49:12.316272+00:00", "meta": {"OBJECT_NAME": "FENGYUN 1C DEB", "OBJECT_ID": "1999-025DXR", "EPOCH": "2025-12-02T03:36:33.041088", "MEAN_MOTION": 13.88704253, "ECCENTRICITY": 0.02382631, "INCLINATION": 96.1215, "RA_OF_ASC_NODE": 120.4461, "ARG_OF_PERICENTER": 331.0529, "MEAN_ANOMALY": 27.7592, "EPHEMERIS_TYPE": 0, "CLASSIFICATION_TYPE": "U", "NORAD_CAT_ID": 36647, "ELEMENT_SET_NO": 999, "REV_AT_EPOCH": 30265, "BSTAR": 0.0023032747, "MEAN_MOTION_DOT": 3.46e-05, "MEAN_MOTION_DDOT": 0}, "tle": {"line1": "1 36647U 99025DXR 25336.15038242  .00003460  00000+0  23033-2 0  9990", "line2": "2 36647  96.1215 120.4461 0238263 331.0529  27.7592 13.88704253302656"}}, "geometry": {"type": "Point", "coordinates": [90.02428576638582, 78.16711157379785]}}, {"type": "Feature", "properties": {"norad_id": 36652, "name": "FENGYUN 1C DEB", "group": "fengyun-1c-debris", "lat": 71.78612218014821, "lon": -92.6448281126059, "alt_km": 804.6664691723172, "timestamp": "2025-12-02T17:49:12.316283+00:00", "meta": {"OBJECT_NAME": "FENGYUN 1C DEB", "OBJECT_ID": "1999-025DXW", "EPOCH": "2025-12-02T12:15:51.314976", "MEAN_MOTION": 14.22693053, "ECCENTRICITY": 0.0050884, "INCLINATION": 98.943, "RA_OF_ASC_NODE": 58.53, "ARG_OF_PERICENTER": 23.5446, "MEAN_ANOMALY": 336.8045, "EPHEMERIS_TYPE": 0, "CLASSIFICATION_TYPE": "U", "NORAD_CAT_ID": 36652, "ELEMENT_SET_NO": 999, "REV_AT_EPOCH": 64179, "BSTAR": 0.002092, "MEAN_MOTION_DOT": 4.703e-05, "MEAN_MOTION_DDOT": 0}, "tle": {"line1": "1 36652U 99025DXW 25336.51101059  .00004703  00000+0  20920-2 0  9996", "line2": "2 36652  98.9430  58.5300 0050884  23.5446 336.8045 14.22693053641798"}}, "geometry": {"type": "Point", "coordinates": [-92.6448281126059, 71.78612218014821]}}, {"type": "Feature", "properties": {"norad_id": 36657, "name": "FENGYUN 1C DEB", "group": "fengyun-1c-debris", "lat": -12.742855333507137, "lon": -55.936623093739634, "alt_km": 686.7234255384474, "timestamp": "2025-12-02T17:49:12.316293+00:00", "meta": {"OBJECT_NAME": "FENGYUN 1C DEB", "OBJECT_ID": "1999-025DYB", "EPOCH": "2025-12-02T08:45:37.133568", "MEAN_MOTION": 14.65384436, "ECCENTRICITY": 0.0106099, "INCLINATION": 99.4117, "RA_OF_ASC_NODE": 125.7813, "ARG_OF_PERICENTER": 98.4012, "MEAN_ANOMALY": 262.9231, "EPHEMERIS_TYPE": 0, "CLASSIFICATION_TYPE": "U", "NORAD_CAT_ID": 36657, "ELEMENT_SET_NO": 999, "REV_AT_EPOCH": 66104, "BSTAR": 0.00095766, "MEAN_MOTION_DOT": 5.561e-05, "MEAN_MOTION_DDOT": 0}, "tle": {"line1": "1 36657U 99025DYB 25336.36501312  .00005561  00000+0  95766-3 0  9994", "line2": "2 36657  99.4117 125.7813 0106099  98.4012 262.9231 14.65384436661042"}}, "geometry": {"type": "Point", "coordinates": [-55.936623093739634, -12.742855333507137]}}, {"type": "Feature", "properties": {"norad_id": 36659, "name": "FENGYUN 1C DEB", "group": "fengyun-1c-debris", "lat": 67.32257599837833, "lon": -175.73447597146463, "alt_km": 833.1121544354928, "timestamp": "2025-12-02T17:49:12.316303+00:00", "meta": {"OBJECT_NAME": "FENGYUN 1C DEB", "OBJECT_ID": "1999-025DYD", "EPOCH": "2025-11-30T06:26:58.096608", "MEAN_MOTION": 13.87343928, "ECCENTRICITY": 0.01359777, "INCLINATION": 99.8542, "RA_OF_ASC_NODE": 337.0781, "ARG_OF_PERICENTER": 107.5886, "MEAN_ANOMALY": 254.0174, "EPHEMERIS_TYPE": 0, "CLASSIFICATION_TYPE": "U", "NORAD_CAT_ID": 36659, "ELEMENT_SET_NO": 999, "REV_AT_EPOCH": 60252, "BSTAR": 0.00069391445, "MEAN_MOTION_DOT": 8.31e-06, "MEAN_MOTION_DDOT": 0}, "tle": {"line1": "1 36659U 99025DYD 25334.26872797  .00000831  00000+0  69391-3 0  9991", "line2": "2 36659  99.8542 337.0781 0135977 107.5886 254.0174 13.87343928602520"}}, "geometry": {"type": "Point", "coordinates": [-175.73447597146463, 67.32257599837833]}}, {"type": "Feature", "properties": {"norad_id": 36664, "name": "FENGYUN 1C DEB", "group": "fengyun-1c-debris", "lat": 16.487030684090477, "lon": -0.9157728545869177, "alt_km": 876.9063936704779, "timestamp": "2025-12-02T17:49:12.316313+00:00", "meta": {"OBJECT_NAME": "FENGYUN 1C DEB", "OBJECT_ID": "1999-025DYJ", "EPOCH": "2025-12-02T07:34:44.231808", "MEAN_MOTION": 14.17949443, "ECCENTRICITY": 0.0173394, "INCLINATION": 98.6054, "RA_OF_ASC_NODE": 1.2392, "ARG_OF_PERICENTER": 129.5773, "MEAN_ANOMALY": 232.0864, "EPHEMERIS_TYPE": 0, "CLASSIFICATION_TYPE": "U", "NORAD_CAT_ID": 36664, "ELEMENT_SET_NO": 999, "REV_AT_EPOCH": 63603, "BSTAR": 0.00012408, "MEAN_MOTION_DOT": 2.53e-06, "MEAN_MOTION_DDOT": 0}, "tle": {"line1": "1 36664U 99025DYJ 25336.31578972  .00000253  00000+0  12408-3 0  9998", "line2": "2 36664  98.6054   1.2392 0173394 129.5773 232.0864 14.17949443636036"}}, "geometry": {"type": "Point", "coordinates": [-0.9157728545869177, 16.487030684090477]}}, {"type": "Feature", "properties": {"norad_id": 36668, "name": "FENGYUN 1C DEB", "group": "fengyun-1c-debris", "lat": 77.82560488617145, "lon": -147.92459725393394, "alt_km": 867.5446493406353, "timestamp": "2025-12-02T17:49:12.316323+00:00", "meta": {"OBJECT_NAME": "FENGYUN 1C DEB", "OBJECT_ID": "1999-025DYN", "EPOCH": "2025-11-29T06:12:57.993120", "MEAN_MOTION": 14.15343554, "ECCENTRICITY": 0.00510786, "INCLINATION": 98.6103, "RA_OF_ASC_NODE": 344.0996, "ARG_OF_PERICENTER": 264.9139, "MEAN_ANOMALY": 94.6204, "EPHEMERIS_TYPE": 0, "CLASSIFICATION_TYPE": "U", "NORAD_CAT_ID": 36668, "ELEMENT_SET_NO": 999, "REV_AT_EPOCH": 57227, "BSTAR": 0.00062785696, "MEAN_MOTION_DOT": 1.196e-05, "MEAN_MOTION_DDOT": 0}, "tle": {"line1": "1 36668U 99025DYN 25333.25900455  .00001196  00000+0  62786-3 0  9998", "line2": "2 36668  98.6103 344.0996 0051078 264.9139  94.6204 14.15343554572271"}}, "geometry": {"type": "Point", "coordinates": [-147.92459725393394, 77.82560488617145]}}, {"type": "Feature", "properties": {"norad_id": 36678, "name": "FENGYUN 1C DEB", "group": "fengyun-1c-debris", "lat": 81.68608848514005, "lon": -126.69571725747261, "alt_km": 713.3599840781771, "timestamp": "2025-12-02T17:49:12.316333+00:00", "meta": {"OBJECT_NAME": "FENGYUN 1C DEB", "OBJECT_ID": "1999-025DYY", "EPOCH": "2025-11-26T04:26:16.761408", "MEAN_MOTION": 14.37944691, "ECCENTRICITY": 0.01523469, "INCLINATION": 98.2901, "RA_OF_ASC_NODE": 313.1233, "ARG_OF_PERICENTER": 42.409, "MEAN_ANOMALY": 318.8754, "EPHEMERIS_TYPE": 0, "CLASSIFICATION_TYPE": "U", "NORAD_CAT_ID": 36678, "ELEMENT_SET_NO": 999, "REV_AT_EPOCH": 64751, "BSTAR": 0.00045851479, "MEAN_MOTION_DOT": 1.539e-05, "MEAN_MOTION_DDOT": 0}, "tle": {"line1": "1 36678U 99025DYY 25330.18491622  .00001539  00000+0  45851-3 0  9994", "line2": "2 36678  98.2901 313.1233 0152346  42.4090 318.8754 14.37944691647514"}}, "geometry": {"type": "Point", "coordinates": [-126.69571725747261, 81.68608848514005]}}, {"type": "Feature", "properties": {"norad_id": 36679, "name": "FENGYUN 1C DEB", "group": "fengyun-1c-debris", "lat": 18.740919942473422, "lon": -29.888791533005072, "alt_km": 890.64347466037, "timestamp": "2025-12-02T17:49:12.316343+00:00", "meta": {"OBJECT_NAME": "FENGYUN 1C DEB", "OBJECT_ID": "1999-025DYZ", "EPOCH": "2025-12-02T05:45:43.795008", "MEAN_MOTION": 14.04609463, "ECCENTRICITY": 0.0085974, "INCLINATION": 98.8351, "RA_OF_ASC_NODE": 332.6471, "ARG_OF_PERICENTER": 122.6149, "MEAN_ANOMALY": 238.3353, "EPHEMERIS_TYPE": 0, "CLASSIFICATION_TYPE": "U", "NORAD_CAT_ID": 36679, "ELEMENT_SET_NO": 999, "REV_AT_EPOCH": 24401, "BSTAR": 0.00048108, "MEAN_MOTION_DOT": 7.53e-06, "MEAN_MOTION_DDOT": 0}, "tle": {"line1": "1 36679U 99025DYZ 25336.24009022  .00000753  00000+0  48108-3 0  9992", "line2": "2 36679  98.8351 332.6471 0085974 122.6149 238.3353 14.04609463244016"}}, "geometry": {"type": "Point", "coordinates": [-29.888791533005072, 18.740919942473422]}}, {"type": "Feature", "properties": {"norad_id": 36680, "name": "FENGYUN 1C DEB", "group": "fengyun-1c-debris", "lat": -22.37990907463787, "lon": 145.66978045330214, "alt_km": 800.0619599481433, "timestamp": "2025-12-02T17:49:12.316353+00:00", "meta": {"OBJECT_NAME": "FENGYUN 1C DEB", "OBJECT_ID": "1999-025DZA", "EPOCH": "2025-12-01T11:07:14.342016", "MEAN_MOTION": 14.1858241, "ECCENTRICITY": 0.01886112, "INCLINATION": 98.5478, "RA_OF_ASC_NODE": 327.9868, "ARG_OF_PERICENTER": 282.1822, "MEAN_ANOMALY": 233.6728, "EPHEMERIS_TYPE": 0, "CLASSIFICATION_TYPE": "U", "NORAD_CAT_ID": 36680, "ELEMENT_SET_NO": 999, "REV_AT_EPOCH": 64137, "BSTAR": 0.00071360344, "MEAN_MOTION_DOT": 1.717e-05, "MEAN_MOTION_DDOT": 0}, "tle": {"line1": "1 36680U 99025DZA 25335.46336044  .00001717  00000+0  71360-3 0  9991", "line2": "2 36680  98.5478 327.9868 0188611 282.1822 233.6728 14.18582410641375"}}, "geometry": {"type": "Point", "coordinates": [145.66978045330214, -22.37990907463787]}}]}